start=new Date('2022-11-01T00:00:00.000Z').valueOf();
sats=[{"RA_OF_ASC_NODE":"147.7312","EPOCH":"2022-10-31T19:52:28.651296","MEAN_MOTION_DDOT":"0.0000000000000","GP_ID":"216618636","MEAN_ELEMENT_THEORY":"SGP4","TLE_LINE1":"1 52461U 22049L   22304.82810939 -.00000145  00000-0  89861-5 0  9994","ELEMENT_SET_NO":"999","BSTAR":"0.00000898610000","REF_FRAME":"TEME","EPHEMERIS_TYPE":"0","PERIAPSIS":"538.588","ECCENTRICITY":"0.00016890","RCS_SIZE":"LARGE","NORAD_CAT_ID":"52461","DECAY_DATE":null,"OBJECT_NAME":"STARLINK-3900","TLE_LINE2":"2 52461  53.2159 147.7312 0001689  50.8477 309.2665 15.08836502 27474","INCLINATION":"53.2159","MEAN_MOTION_DOT":"-0.00000145","OBJECT_ID":"2022-049L","PERIOD":"95.438","REV_AT_EPOCH":"2747","COUNTRY_CODE":"US","CLASSIFICATION_TYPE":"U","OBJECT_TYPE":"PAYLOAD","ARG_OF_PERICENTER":"50.8477","SEMIMAJOR_AXIS":"6917.891","FILE":"3639522","SITE":"AFETR","TIME_SYSTEM":"UTC","MEAN_ANOMALY":"309.2665","LAUNCH_DATE":"2022-05-06","APOAPSIS":"540.925","MEAN_MOTION":"15.08836502","CENTER_NAME":"EARTH"},{"MEAN_ELEMENT_THEORY":"SGP4","GP_ID":"216617384","MEAN_MOTION_DDOT":"0.0000000000000","EPOCH":"2022-10-31T21:21:14.743008","RA_OF_ASC_NODE":"157.4551","RCS_SIZE":"LARGE","DECAY_DATE":null,"NORAD_CAT_ID":"52462","ECCENTRICITY":"0.00016580","EPHEMERIS_TYPE":"0","PERIAPSIS":"538.631","BSTAR":"-0.00002235600000","REF_FRAME":"TEME","ELEMENT_SET_NO":"999","TLE_LINE1":"1 52462U 22049M   22304.88975397 -.00000644  00000-0 -22356-4 0  9991","CLASSIFICATION_TYPE":"U","REV_AT_EPOCH":"2734","COUNTRY_CODE":"US","PERIOD":"95.438","OBJECT_ID":"2022-049M","INCLINATION":"53.2146","MEAN_MOTION_DOT":"-0.00000644","OBJECT_NAME":"STARLINK-3903","TLE_LINE2":"2 52462  53.2146 157.4551 0001658  46.6430 313.4700 15.08829487 27349","MEAN_MOTION":"15.08829487","CENTER_NAME":"EARTH","APOAPSIS":"540.925","LAUNCH_DATE":"2022-05-06","SITE":"AFETR","MEAN_ANOMALY":"313.4700","TIME_SYSTEM":"UTC","SEMIMAJOR_AXIS":"6917.913","FILE":"3639522","OBJECT_TYPE":"PAYLOAD","ARG_OF_PERICENTER":"46.6430"},{"CENTER_NAME":"EARTH","MEAN_MOTION":"15.08838495","APOAPSIS":"540.992","LAUNCH_DATE":"2022-05-06","TIME_SYSTEM":"UTC","SITE":"AFETR","MEAN_ANOMALY":"305.9731","FILE":"3639522","SEMIMAJOR_AXIS":"6917.885","OBJECT_TYPE":"PAYLOAD","ARG_OF_PERICENTER":"54.1428","CLASSIFICATION_TYPE":"U","COUNTRY_CODE":"US","REV_AT_EPOCH":"2747","PERIOD":"95.438","OBJECT_ID":"2022-049N","INCLINATION":"53.2164","MEAN_MOTION_DOT":"-0.00002309","TLE_LINE2":"2 52463  53.2164 147.7458 0001796  54.1428 305.9731 15.08838495 27475","OBJECT_NAME":"STARLINK-3885","NORAD_CAT_ID":"52463","DECAY_DATE":null,"RCS_SIZE":"LARGE","ECCENTRICITY":"0.00017960","EPHEMERIS_TYPE":"0","PERIAPSIS":"538.508","BSTAR":"-0.00012701000000","REF_FRAME":"TEME","ELEMENT_SET_NO":"999","TLE_LINE1":"1 52463U 22049N   22304.82443394 -.00002309  00000-0 -12701-3 0  9995","MEAN_ELEMENT_THEORY":"SGP4","GP_ID":"216617135","MEAN_MOTION_DDOT":"0.0000000000000","EPOCH":"2022-10-31T19:47:11.092416","RA_OF_ASC_NODE":"147.7458"},{"RA_OF_ASC_NODE":"157.7400","GP_ID":"216618386","MEAN_MOTION_DDOT":"0.0000000000000","EPOCH":"2022-10-31T19:51:09.013824","MEAN_ELEMENT_THEORY":"SGP4","ELEMENT_SET_NO":"999","TLE_LINE1":"1 52464U 22049P   22304.82718766 -.00002623  00000-0 -14681-3 0  9992","PERIAPSIS":"538.630","EPHEMERIS_TYPE":"0","REF_FRAME":"TEME","BSTAR":"-0.00014681000000","ECCENTRICITY":"0.00016640","DECAY_DATE":null,"NORAD_CAT_ID":"52464","RCS_SIZE":"LARGE","TLE_LINE2":"2 52464  53.2157 157.7400 0001664  59.1266 300.9889 15.08828461 27331","OBJECT_NAME":"STARLINK-3904","OBJECT_ID":"2022-049P","MEAN_MOTION_DOT":"-0.00002623","INCLINATION":"53.2157","PERIOD":"95.438","CLASSIFICATION_TYPE":"U","COUNTRY_CODE":"US","REV_AT_EPOCH":"2733","ARG_OF_PERICENTER":"59.1266","OBJECT_TYPE":"PAYLOAD","MEAN_ANOMALY":"300.9889","SITE":"AFETR","TIME_SYSTEM":"UTC","FILE":"3639522","SEMIMAJOR_AXIS":"6917.916","LAUNCH_DATE":"2022-05-06","CENTER_NAME":"EARTH","MEAN_MOTION":"15.08828461","APOAPSIS":"540.932"},{"REV_AT_EPOCH":"2743","COUNTRY_CODE":"US","CLASSIFICATION_TYPE":"U","PERIOD":"95.438","INCLINATION":"53.2175","MEAN_MOTION_DOT":"0.00000120","OBJECT_ID":"2022-049Q","OBJECT_NAME":"STARLINK-3863","TLE_LINE2":"2 52465  53.2175 148.9505 0001744  54.5198 305.5957 15.08834729 27434","APOAPSIS":"540.968","MEAN_MOTION":"15.08834729","CENTER_NAME":"EARTH","LAUNCH_DATE":"2022-05-06","SEMIMAJOR_AXIS":"6917.897","FILE":"3639522","MEAN_ANOMALY":"305.5957","SITE":"AFETR","TIME_SYSTEM":"UTC","ARG_OF_PERICENTER":"54.5198","OBJECT_TYPE":"PAYLOAD","MEAN_ELEMENT_THEORY":"SGP4","EPOCH":"2022-10-31T13:20:20.744160","MEAN_MOTION_DDOT":"0.0000000000000","GP_ID":"216618137","RA_OF_ASC_NODE":"148.9505","RCS_SIZE":"LARGE","NORAD_CAT_ID":"52465","DECAY_DATE":null,"ECCENTRICITY":"0.00017440","BSTAR":"0.00002561900000","REF_FRAME":"TEME","PERIAPSIS":"538.555","EPHEMERIS_TYPE":"0","TLE_LINE1":"1 52465U 22049Q   22304.55579565  .00000120  00000-0  25619-4 0  9997","ELEMENT_SET_NO":"999"},{"MEAN_ELEMENT_THEORY":"SGP4","MEAN_MOTION_DDOT":"0.0000000000000","GP_ID":"216616885","EPOCH":"2022-10-31T21:10:36.651360","RA_OF_ASC_NODE":"157.4850","RCS_SIZE":"LARGE","NORAD_CAT_ID":"52466","DECAY_DATE":null,"ECCENTRICITY":"0.00017110","PERIAPSIS":"538.496","EPHEMERIS_TYPE":"0","REF_FRAME":"TEME","BSTAR":"0.00011977000000","ELEMENT_SET_NO":"999","TLE_LINE1":"1 52466U 22049R   22304.88236865  .00001620  00000-0  11977-3 0  9994","CLASSIFICATION_TYPE":"U","REV_AT_EPOCH":"2734","COUNTRY_CODE":"US","PERIOD":"95.436","OBJECT_ID":"2022-049R","INCLINATION":"53.2177","MEAN_MOTION_DOT":"0.00001620","OBJECT_NAME":"STARLINK-3840","TLE_LINE2":"2 52466  53.2177 157.4850 0001711  46.3976 313.7158 15.08861448 27344","MEAN_MOTION":"15.08861448","CENTER_NAME":"EARTH","APOAPSIS":"540.863","LAUNCH_DATE":"2022-05-06","MEAN_ANOMALY":"313.7158","SITE":"AFETR","TIME_SYSTEM":"UTC","SEMIMAJOR_AXIS":"6917.815","FILE":"3639522","ARG_OF_PERICENTER":"46.3976","OBJECT_TYPE":"PAYLOAD"},{"MEAN_ELEMENT_THEORY":"SGP4","GP_ID":"216588777","MEAN_MOTION_DDOT":"0.0000000000000","EPOCH":"2022-10-31T00:35:55.445856","RA_OF_ASC_NODE":"161.3425","RCS_SIZE":"LARGE","DECAY_DATE":null,"NORAD_CAT_ID":"52467","ECCENTRICITY":"0.00015440","PERIAPSIS":"538.685","EPHEMERIS_TYPE":"0","BSTAR":"-0.00005319200000","REF_FRAME":"TEME","ELEMENT_SET_NO":"999","TLE_LINE1":"1 52467U 22049S   22304.02494729 -.00001134  00000-0 -53192-4 0  9994","CLASSIFICATION_TYPE":"U","REV_AT_EPOCH":"2737","COUNTRY_CODE":"US","PERIOD":"95.438","OBJECT_ID":"2022-049S","MEAN_MOTION_DOT":"-0.00001134","INCLINATION":"53.2168","OBJECT_NAME":"STARLINK-3873","TLE_LINE2":"2 52467  53.2168 161.3425 0001544  64.6263 295.4888 15.08837548 27376","MEAN_MOTION":"15.08837548","CENTER_NAME":"EARTH","APOAPSIS":"540.821","LAUNCH_DATE":"2022-05-06","MEAN_ANOMALY":"295.4888","SITE":"AFETR","TIME_SYSTEM":"UTC","FILE":"3639249","SEMIMAJOR_AXIS":"6917.888","ARG_OF_PERICENTER":"64.6263","OBJECT_TYPE":"PAYLOAD"},{"RA_OF_ASC_NODE":"157.5454","EPOCH":"2022-10-31T20:54:44.815392","GP_ID":"216617887","MEAN_MOTION_DDOT":"0.0000000000000","MEAN_ELEMENT_THEORY":"SGP4","TLE_LINE1":"1 52468U 22049T   22304.87135203 -.00000487  00000-0 -12499-4 0  9992","ELEMENT_SET_NO":"999","REF_FRAME":"TEME","BSTAR":"-0.00001249900000","EPHEMERIS_TYPE":"0","PERIAPSIS":"538.533","ECCENTRICITY":"0.00017790","NORAD_CAT_ID":"52468","DECAY_DATE":null,"RCS_SIZE":"LARGE","TLE_LINE2":"2 52468  53.2166 157.5454 0001779  51.5773 308.5379 15.08833995 27345","OBJECT_NAME":"STARLINK-3864","INCLINATION":"53.2166","MEAN_MOTION_DOT":"-0.00000487","OBJECT_ID":"2022-049T","PERIOD":"95.438","COUNTRY_CODE":"US","REV_AT_EPOCH":"2734","CLASSIFICATION_TYPE":"U","OBJECT_TYPE":"PAYLOAD","ARG_OF_PERICENTER":"51.5773","SEMIMAJOR_AXIS":"6917.899","FILE":"3639522","SITE":"AFETR","MEAN_ANOMALY":"308.5379","TIME_SYSTEM":"UTC","LAUNCH_DATE":"2022-05-06","APOAPSIS":"540.994","CENTER_NAME":"EARTH","MEAN_MOTION":"15.08833995"},{"REF_FRAME":"TEME","BSTAR":"0.00008680100000","EPHEMERIS_TYPE":"0","PERIAPSIS":"538.585","TLE_LINE1":"1 52469U 22049R   22304.87870513  .00001094  00000-0  86801-4 0  9994","ELEMENT_SET_NO":"999","NORAD_CAT_ID":"52469","DECAY_DATE":null,"RCS_SIZE":"LARGE","ECCENTRICITY":"0.00016880","EPOCH":"2022-10-31T21:05:20.123232","GP_ID":"216618637","MEAN_MOTION_DDOT":"0.0000000000000","RA_OF_ASC_NODE":"157.5101","MEAN_ELEMENT_THEORY":"SGP4","FILE":"3639522","SEMIMAJOR_AXIS":"6917.887","SITE":"AFETR","MEAN_ANOMALY":"299.7206","TIME_SYSTEM":"UTC","OBJECT_TYPE":"PAYLOAD","ARG_OF_PERICENTER":"60.3954","APOAPSIS":"540.920","CENTER_NAME":"EARTH","MEAN_MOTION":"15.08837742","LAUNCH_DATE":"2022-05-06","INCLINATION":"53.2160","MEAN_MOTION_DOT":"0.00001094","OBJECT_ID":"2022-049U","TLE_LINE2":"2 52469  53.2160 157.5101 0001688  60.3954 299.7206 15.08837742 27341","OBJECT_NAME":"STARLINK-3828","COUNTRY_CODE":"US","REV_AT_EPOCH":"2734","CLASSIFICATION_TYPE":"U","PERIOD":"95.438"},{"EPHEMERIS_TYPE":"0","PERIAPSIS":"538.598","BSTAR":"-0.00006719700000","REF_FRAME":"TEME","ELEMENT_SET_NO":"999","TLE_LINE1":"1 52470U 22049V   22304.86399310 -.00001357  00000-0 -67197-4 0  9997","DECAY_DATE":null,"NORAD_CAT_ID":"52470","RCS_SIZE":"LARGE","ECCENTRICITY":"0.00017080","MEAN_MOTION_DDOT":"0.0000000000000","GP_ID":"216617385","EPOCH":"2022-10-31T20:44:09.003840","RA_OF_ASC_NODE":"157.5804","MEAN_ELEMENT_THEORY":"SGP4","TIME_SYSTEM":"UTC","SITE":"AFETR","MEAN_ANOMALY":"300.7989","FILE":"3639522","SEMIMAJOR_AXIS":"6917.914","OBJECT_TYPE":"PAYLOAD","ARG_OF_PERICENTER":"59.3172","CENTER_NAME":"EARTH","MEAN_MOTION":"15.08828862","APOAPSIS":"540.961","LAUNCH_DATE":"2022-05-06","OBJECT_ID":"2022-049V","INCLINATION":"53.2167","MEAN_MOTION_DOT":"-0.00001357","TLE_LINE2":"2 52470  53.2167 157.5804 0001708  59.3172 300.7989 15.08828862 27347","OBJECT_NAME":"STARLINK-3859","CLASSIFICATION_TYPE":"U","COUNTRY_CODE":"US","REV_AT_EPOCH":"2734","PERIOD":"95.438"}];
